{"fetched_at":"2026-03-29T16:36:15Z","count":15609,"tles":[{"name":"STARLINK-35031","line1":"1 65404U 25192A   26087.87321822  .00025062  00000+0  85534-3 0  9996","line2":"2 65404  53.1573 153.7477 0001305  86.7218 273.3932 15.30203574 32172","category":"Starlink"}]}