{
  "norad_id": 65404,
  "name": "STARLINK-35031",
  "history": [
    {
      "epoch": "2026-03-28T20:57:26.054208",
      "apogee_km": 476.0987591727662,
      "perigee_km": 474.3100370678567,
      "latitude_deg": -41.4923035564992,
      "longitude_deg": 84.2289491200354,
      "semi_major_axis_km": 6853.341398120311,
      "eccentricity": 0.0001305,
      "inclination_deg": 53.1573,
      "raan_deg": 153.7477,
      "arg_perigee_deg": 86.7218,
      "mean_anomaly_deg": 273.3932,
      "mean_motion_rev_day": 15.30203574
    }
  ]
}